     3.04           N: GNSS NAV DATA    M: MIXED            RINEX VERSION / TYPE
ssrcrin-15.6.1x                         20240223 134348 UTC PGM / RUN BY / DATE 
    18                                                      LEAP SECONDS        
                                                            END OF HEADER       
C08 2024 02 23 13 00 00 1.602317206562E-05-2.980726776514E-11 0.000000000000E+00
     1.000000000000E+00 2.902187500000E+02 1.227908290166E-09-2.324645046751E+00
     9.458512067795E-06 2.688026754186E-03-9.409151971340E-06 6.493080888748E+03
     4.788000000000E+05-1.974403858185E-07-1.732310130882E+00-5.774199962616E-08
     1.067182905663E+00 5.652343750000E+02-3.125556631294E+00-2.654753438279E-09
     4.428755904031E-10 0.000000000000E+00 9.460000000000E+02 0.000000000000E+00
     2.000000000000E+00 0.000000000000E+00 1.100000000000E-08-3.000000000000E-10
     4.814580000000E+05 0.000000000000E+00
G28 2024 02 23 14 00 00-1.408751122653E-04-1.307398633799E-11 0.000000000000E+00
     2.080000000000E+02 1.571875000000E+01 4.506259132352E-09 1.058819795066E+00
     8.530914783478E-07 6.296637002379E-04 1.015700399876E-05 5.153601882935E+03
     4.824000000000E+05-3.725290298462E-08 5.980216909867E-01-2.607703208923E-08
     9.617164775458E-01 1.854062500000E+02 1.733554329542E+00-7.891757294797E-09
     5.139499795082E-10 1.000000000000E+00 2.302000000000E+03 0.000000000000E+00
     2.000000000000E+00 0.000000000000E+00-9.313225746155E-09 4.640000000000E+02
     4.814760000000E+05 4.000000000000E+00
G26 2024 02 23 13 59 44 1.871106214821E-04-4.206412995700E-12 0.000000000000E+00
     7.000000000000E+00 6.218750000000E+00 5.764882987659E-09 9.127283176780E-01
     5.904585123062E-07 8.824748569168E-03 4.025176167488E-06 5.153583688736E+03
     4.823840000000E+05 0.000000000000E+00 1.601596064219E+00 9.872019290924E-08
     9.313072573254E-01 2.848437500000E+02 5.333544564454E-01-8.791437627237E-09
    -1.192906832215E-10 1.000000000000E+00 2.302000000000E+03 0.000000000000E+00
     2.000000000000E+00 0.000000000000E+00 6.984919309616E-09 7.000000000000E+00
     4.814760000000E+05 4.000000000000E+00
G18 2024 02 23 14 00 00-5.618138238788E-04-8.071765478235E-12 0.000000000000E+00
     1.630000000000E+02 1.114687500000E+02 4.015167247832E-09-2.935904205063E+00
     5.820766091347E-06 3.851796966046E-03 8.523464202881E-06 5.153624494553E+03
     4.824000000000E+05-4.656612873077E-08-2.492093771971E+00-2.607703208923E-08
     9.746914856641E-01 2.230625000000E+02-3.023336911398E+00-7.792467444690E-09
     3.092985978138E-10 1.000000000000E+00 2.302000000000E+03 0.000000000000E+00
     2.000000000000E+00 0.000000000000E+00-8.381903171539E-09 4.190000000000E+02
     4.814820000000E+05 4.000000000000E+00
G29 2024 02 23 14 00 00-6.063710898161E-04 7.958078640513E-13 0.000000000000E+00
     1.700000000000E+01-2.250000000000E+00 4.015167247832E-09-8.851623972411E-01
    -2.067536115646E-07 2.636974793859E-03 1.114979386330E-05 5.153640266418E+03
     4.824000000000E+05-1.136213541031E-07 2.802010417198E+00-3.352761268616E-08
     9.728944780573E-01 1.709062500000E+02 2.497152042372E+00-7.669605184127E-09
    -5.078782980268E-10 1.000000000000E+00 2.302000000000E+03 0.000000000000E+00
     2.000000000000E+00 0.000000000000E+00-1.024454832077E-08 1.700000000000E+01
     4.814880000000E+05 4.000000000000E+00
G31 2024 02 23 13 59 44-2.278573811054E-04-1.136868377216E-13 0.000000000000E+00
     4.000000000000E+01 2.093750000000E+01 4.710196198578E-09 1.676333688884E+00
     1.193955540657E-06 1.056371256709E-02 1.024454832077E-05 5.153687616348E+03
     4.823840000000E+05-2.533197402954E-07 6.532829708522E-01 9.126961231232E-08
     9.545564839433E-01 1.830312500000E+02 6.599490774595E-01-8.071407635097E-09
     4.628764235181E-10 1.000000000000E+00 2.302000000000E+03 0.000000000000E+00
     2.000000000000E+00 0.000000000000E+00-1.350417733192E-08 4.000000000000E+01
     4.814880000000E+05 4.000000000000E+00
G26 2024 02 23 13 59 44 1.871106214821E-04-4.206412995700E-12 0.000000000000E+00
     7.000000000000E+00 6.218750000000E+00 5.764882987659E-09 9.127283176780E-01
     5.904585123062E-07 8.824748569168E-03 4.025176167488E-06 5.153583688736E+03
     4.823840000000E+05 0.000000000000E+00 1.601596064219E+00 9.872019290924E-08
     9.313072573254E-01 2.848437500000E+02 5.333544564454E-01-8.791437627237E-09
    -1.192906832215E-10 1.000000000000E+00 2.302000000000E+03 0.000000000000E+00
     2.000000000000E+00 0.000000000000E+00 6.984919309616E-09 7.000000000000E+00
     4.814880000000E+05 4.000000000000E+00
G28 2024 02 23 14 00 00-1.408751122653E-04-1.307398633799E-11 0.000000000000E+00
     2.080000000000E+02 1.571875000000E+01 4.506259132352E-09 1.058819795066E+00
     8.530914783478E-07 6.296637002379E-04 1.015700399876E-05 5.153601882935E+03
     4.824000000000E+05-3.725290298462E-08 5.980216909867E-01-2.607703208923E-08
     9.617164775458E-01 1.854062500000E+02 1.733554329542E+00-7.891757294797E-09
     5.139499795082E-10 1.000000000000E+00 2.302000000000E+03 0.000000000000E+00
     2.000000000000E+00 0.000000000000E+00-9.313225746155E-09 4.640000000000E+02
     4.814880000000E+05 4.000000000000E+00
G25 2024 02 23 14 00 00 4.894454032183E-04 1.136868377216E-12 0.000000000000E+00
     6.600000000000E+01 6.562500000000E-01 5.253433112290E-09 1.722147009307E+00
    -2.291053533554E-07 1.182581461035E-02 4.423782229424E-06 5.153599401474E+03
     4.824000000000E+05-2.458691596985E-07 1.662372015667E+00-1.825392246246E-07
     9.505234265332E-01 2.899062500000E+02 1.077728469134E+00-8.423565161015E-09
    -5.000208278745E-11 1.000000000000E+00 2.302000000000E+03 0.000000000000E+00
     2.000000000000E+00 0.000000000000E+00 5.587935447693E-09 6.600000000000E+01
     4.814880000000E+05 4.000000000000E+00
G18 2024 02 23 14 00 00-5.618138238788E-04-8.071765478235E-12 0.000000000000E+00
     1.630000000000E+02 1.114687500000E+02 4.015167247832E-09-2.935904205063E+00
     5.820766091347E-06 3.851796966046E-03 8.523464202881E-06 5.153624494553E+03
     4.824000000000E+05-4.656612873077E-08-2.492093771971E+00-2.607703208923E-08
     9.746914856641E-01 2.230625000000E+02-3.023336911398E+00-7.792467444690E-09
     3.092985978138E-10 1.000000000000E+00 2.302000000000E+03 0.000000000000E+00
     2.000000000000E+00 0.000000000000E+00-8.381903171539E-09 4.190000000000E+02
     4.814880000000E+05 4.000000000000E+00
G16 2024 02 23 14 00 00-3.562830388546E-04 8.526512829121E-12 0.000000000000E+00
     4.000000000000E+01-9.687500000000E+00 5.035924052165E-09 6.570346476732E-02
    -3.073364496231E-07 1.400645519607E-02 4.483386874199E-06 5.153726507187E+03
     4.824000000000E+05-2.048909664154E-08 1.765894480205E+00 1.695007085800E-07
     9.621757957868E-01 2.920937500000E+02 8.276405797865E-01-8.519640591513E-09
    -2.328668426958E-10 1.000000000000E+00 2.302000000000E+03 0.000000000000E+00
     2.000000000000E+00 0.000000000000E+00-1.024454832077E-08 4.000000000000E+01
     4.814880000000E+05 4.000000000000E+00
G20 2024 02 23 14 00 00 3.864187747240E-04-1.477928890381E-12 0.000000000000E+00
     7.800000000000E+01 2.671875000000E+01 4.995922385935E-09-2.377250005319E+00
     1.428648829460E-06 3.835027455352E-03 7.376074790955E-07 5.153724739075E+03
     4.824000000000E+05-1.862645149231E-09-1.637830915352E+00-8.381903171539E-08
     9.521404542546E-01 3.597812500000E+02-2.622564069669E+00-8.608930025062E-09
     1.885792836555E-10 1.000000000000E+00 2.302000000000E+03 0.000000000000E+00
     2.000000000000E+00 0.000000000000E+00-8.381903171539E-09 7.800000000000E+01
     4.814880000000E+05 4.000000000000E+00
G05 2024 02 23 14 00 00-1.628892496228E-04-1.364242052659E-12 0.000000000000E+00
     1.150000000000E+02 2.437500000000E+00 4.625906973308E-09-5.719610386445E-01
     2.626329660416E-07 5.673324340023E-03 1.149252057076E-06 5.153563238144E+03
     4.824000000000E+05-7.264316082001E-08-1.510552712218E+00 7.450580596924E-08
     9.696363561491E-01 3.619687500000E+02 1.230277421993E+00-8.538927109160E-09
     8.786080261224E-11 1.000000000000E+00 2.302000000000E+03 0.000000000000E+00
     2.000000000000E+00 0.000000000000E+00-1.117587089539E-08 1.150000000000E+02
     4.814880000000E+05 4.000000000000E+00
G04 2024 02 23 14 00 00 2.987934276462E-04 9.322320693173E-12 0.000000000000E+00
     2.900000000000E+01-1.059062500000E+02 4.235176412097E-09-1.180142550863E+00
    -5.628913640976E-06 2.836789237335E-03 9.298324584961E-06 5.153586891174E+03
     4.824000000000E+05 3.166496753693E-08-3.807301018627E-01-1.676380634308E-08
     9.646928282656E-01 1.995312500000E+02-2.968715772299E+00-7.906400761899E-09
    -1.167905790821E-10 1.000000000000E+00 2.302000000000E+03 0.000000000000E+00
     2.000000000000E+00 0.000000000000E+00-4.656612873077E-09 5.410000000000E+02
     4.814880000000E+05 4.000000000000E+00
G11 2024 02 23 14 00 00-5.854186601937E-04-1.250555214938E-11 0.000000000000E+00
     1.940000000000E+02 1.242187500000E+02 4.204103689222E-09-1.707403049425E+00
     6.465241312981E-06 1.236993819475E-03 8.082017302513E-06 5.153670482635E+03
     4.824000000000E+05 3.911554813385E-08-2.462352417742E+00-9.872019290924E-08
     9.663247206976E-01 2.291875000000E+02-2.466154102954E+00-7.957117160155E-09
     3.142988060926E-10 1.000000000000E+00 2.302000000000E+03 0.000000000000E+00
     2.000000000000E+00 0.000000000000E+00-8.381903171539E-09 9.620000000000E+02
     4.814880000000E+05 4.000000000000E+00
